IRIDIUM 116             
1 43072U 17083C   25023.48619505  .00000139  00000+0  42469-4 0  9996
2 43072  86.4008 175.0386 0002249  92.4970 267.6483 14.34218284371118
IRIDIUM 130             
1 43073U 17083D   25023.45448063  .00000854  00000+0  29780-3 0  9997
2 43073  86.4012 175.2763 0002169  97.7266 262.4176 14.34218717371058
IRIDIUM 151             
1 43074U 17083E   25023.49887675  .00000194  00000+0  62359-4 0  9995
2 43074  86.4012 175.0795 0002108  90.7829 269.3608 14.34219285371083
IRIDIUM 134             
1 43075U 17083F   25023.81600589  .00000734  00000+0  25494-3 0  9997
2 43075  86.4019 174.9471 0002383  94.7863 265.3605 14.34212332371097
IRIDIUM 137             
1 43076U 17083G   25023.47985260  .00000127  00000+0  38273-4 0  9998
2 43076  86.4014 175.1705 0002487  86.0952 274.0528 14.34217889371110
IRIDIUM 141             
1 43077U 17083H   25023.47350671  .00000196  00000+0  62845-4 0  9999
2 43077  86.4009 175.0331 0001673  98.6931 261.4454 14.34218917371112
IRIDIUM 153             
1 43078U 17083J   25023.42568482  .00000309  00000+0  10332-3 0  9995
2 43078  86.4015 143.5812 0001403 104.0383 256.0968 14.34217619372218
IRIDIUM 131             
1 43079U 17083K   25023.80965828  .00000808  00000+0  28149-3 0  9992
2 43079  86.4032 175.0443 0001970  88.0956 272.0466 14.34216208371093
